[{"OBJECT_NAME":"DIRECTV 11","OBJECT_ID":"2008-013A","EPOCH":"2026-02-01T21:34:26.962752","MEAN_MOTION":1.0027078,"ECCENTRICITY":3.23e-5,"INCLINATION":0.0031,"RA_OF_ASC_NODE":317.4989,"ARG_OF_PERICENTER":340.2777,"MEAN_ANOMALY":58.7047,"EPHEMERIS_TYPE":0,"CLASSIFICATION_TYPE":"U","NORAD_CAT_ID":32729,"ELEMENT_SET_NO":999,"REV_AT_EPOCH":4423,"BSTAR":0,"MEAN_MOTION_DOT":-1.35e-6,"MEAN_MOTION_DDOT":0},{"OBJECT_NAME":"GALAXY 18 (G-18)","OBJECT_ID":"2008-024A","EPOCH":"2026-02-01T18:02:02.315616","MEAN_MOTION":1.0026929,"ECCENTRICITY":0.00032145,"INCLINATION":0.0145,"RA_OF_ASC_NODE":101.1584,"ARG_OF_PERICENTER":222.8687,"MEAN_ANOMALY":315.4257,"EPHEMERIS_TYPE":0,"CLASSIFICATION_TYPE":"U","NORAD_CAT_ID":32951,"ELEMENT_SET_NO":999,"REV_AT_EPOCH":4449,"BSTAR":0,"MEAN_MOTION_DOT":0,"MEAN_MOTION_DDOT":0},{"OBJECT_NAME":"INTELSAT 25 (IS-25)","OBJECT_ID":"2008-034A","EPOCH":"2026-02-01T21:53:47.609376","MEAN_MOTION":1.00271831,"ECCENTRICITY":0.00046725,"INCLINATION":2.3591,"RA_OF_ASC_NODE":82.0342,"ARG_OF_PERICENTER":220.811,"MEAN_ANOMALY":126.2023,"EPHEMERIS_TYPE":0,"CLASSIFICATION_TYPE":"U","NORAD_CAT_ID":33153,"ELEMENT_SET_NO":999,"REV_AT_EPOCH":6433,"BSTAR":0,"MEAN_MOTION_DOT":-2.35e-6,"MEAN_MOTION_DDOT":0},{"OBJECT_NAME":"GALAXY 19 (G-19)","OBJECT_ID":"2008-045A","EPOCH":"2026-02-01T21:35:04.403328","MEAN_MOTION":1.0027286,"ECCENTRICITY":0.00030857,"INCLINATION":0.0627,"RA_OF_ASC_NODE":263.5149,"ARG_OF_PERICENTER":49.0174,"MEAN_ANOMALY":46.301,"EPHEMERIS_TYPE":0,"CLASSIFICATION_TYPE":"U","NORAD_CAT_ID":33376,"ELEMENT_SET_NO":999,"REV_AT_EPOCH":6354,"BSTAR":0,"MEAN_MOTION_DOT":-1.49e-6,"MEAN_MOTION_DDOT":0},{"OBJECT_NAME":"FM-5","OBJECT_ID":"2009-034A","EPOCH":"2026-02-01T19:55:28.945632","MEAN_MOTION":1.00271821,"ECCENTRICITY":0.00010759,"INCLINATION":0.0045,"RA_OF_ASC_NODE":340.3763,"ARG_OF_PERICENTER":222.4477,"MEAN_ANOMALY":141.899,"EPHEMERIS_TYPE":0,"CLASSIFICATION_TYPE":"U","NORAD_CAT_ID":35493,"ELEMENT_SET_NO":999,"REV_AT_EPOCH":4528,"BSTAR":0,"MEAN_MOTION_DOT":-2.1e-6,"MEAN_MOTION_DDOT":0},{"OBJECT_NAME":"INTELSAT 14 (IS-14)","OBJECT_ID":"2009-064A","EPOCH":"2026-02-01T21:49:55.480224","MEAN_MOTION":1.00271079,"ECCENTRICITY":0.0002455,"INCLINATION":0.0194,"RA_OF_ASC_NODE":71.4863,"ARG_OF_PERICENTER":243.8346,"MEAN_ANOMALY":99.2352,"EPHEMERIS_TYPE":0,"CLASSIFICATION_TYPE":"U","NORAD_CAT_ID":36097,"ELEMENT_SET_NO":999,"REV_AT_EPOCH":5924,"BSTAR":0,"MEAN_MOTION_DOT":-2.83e-6,"MEAN_MOTION_DDOT":0},{"OBJECT_NAME":"INTELSAT 15 (IS-15)","OBJECT_ID":"2009-067A","EPOCH":"2026-02-01T22:26:59.428320","MEAN_MOTION":1.00271051,"ECCENTRICITY":0.00025709,"INCLINATION":0.0179,"RA_OF_ASC_NODE":81.7864,"ARG_OF_PERICENTER":240.9663,"MEAN_ANOMALY":231.2596,"EPHEMERIS_TYPE":0,"CLASSIFICATION_TYPE":"U","NORAD_CAT_ID":36106,"ELEMENT_SET_NO":999,"REV_AT_EPOCH":3987,"BSTAR":0,"MEAN_MOTION_DOT":-1.95e-6,"MEAN_MOTION_DDOT":0},{"OBJECT_NAME":"DIRECTV 12","OBJECT_ID":"2009-075A","EPOCH":"2026-02-01T21:33:27.058176","MEAN_MOTION":1.00271122,"ECCENTRICITY":4.248e-5,"INCLINATION":0.0054,"RA_OF_ASC_NODE":168.067,"ARG_OF_PERICENTER":170.019,"MEAN_ANOMALY":14.6394,"EPHEMERIS_TYPE":0,"CLASSIFICATION_TYPE":"U","NORAD_CAT_ID":36131,"ELEMENT_SET_NO":999,"REV_AT_EPOCH":4519,"BSTAR":0,"MEAN_MOTION_DOT":-1.13e-6,"MEAN_MOTION_DDOT":0},{"OBJECT_NAME":"INTELSAT 16 (IS-16)","OBJECT_ID":"2010-006A","EPOCH":"2026-02-01T21:40:56.340768","MEAN_MOTION":1.00270731,"ECCENTRICITY":0.00021818,"INCLINATION":0.0129,"RA_OF_ASC_NODE":42.8894,"ARG_OF_PERICENTER":266.1578,"MEAN_ANOMALY":72.0632,"EPHEMERIS_TYPE":0,"CLASSIFICATION_TYPE":"U","NORAD_CAT_ID":36397,"ELEMENT_SET_NO":999,"REV_AT_EPOCH":5829,"BSTAR":0,"MEAN_MOTION_DOT":-2.54e-6,"MEAN_MOTION_DDOT":0},{"OBJECT_NAME":"XM-5","OBJECT_ID":"2010-053A","EPOCH":"2026-02-01T21:29:49.904736","MEAN_MOTION":1.00271385,"ECCENTRICITY":0.00028932,"INCLINATION":0.0646,"RA_OF_ASC_NODE":268.4447,"ARG_OF_PERICENTER":257.3747,"MEAN_ANOMALY":173.51,"EPHEMERIS_TYPE":0,"CLASSIFICATION_TYPE":"U","NORAD_CAT_ID":37185,"ELEMENT_SET_NO":999,"REV_AT_EPOCH":5612,"BSTAR":0,"MEAN_MOTION_DOT":-3.3e-7,"MEAN_MOTION_DDOT":0},{"OBJECT_NAME":"INTELSAT 17 (IS-17)","OBJECT_ID":"2010-065B","EPOCH":"2026-02-01T22:21:29.954016","MEAN_MOTION":1.0027391,"ECCENTRICITY":0.00025455,"INCLINATION":0.0302,"RA_OF_ASC_NODE":218.2159,"ARG_OF_PERICENTER":103.5567,"MEAN_ANOMALY":211.7135,"EPHEMERIS_TYPE":0,"CLASSIFICATION_TYPE":"U","NORAD_CAT_ID":37238,"ELEMENT_SET_NO":999,"REV_AT_EPOCH":5189,"BSTAR":0,"MEAN_MOTION_DOT":-1.2e-7,"MEAN_MOTION_DDOT":0},{"OBJECT_NAME":"INTELSAT 28 (IS-28)","OBJECT_ID":"2011-016A","EPOCH":"2026-02-01T21:53:40.121088","MEAN_MOTION":1.00270399,"ECCENTRICITY":0.0004315,"INCLINATION":1.4566,"RA_OF_ASC_NODE":84.4329,"ARG_OF_PERICENTER":224.2247,"MEAN_ANOMALY":120.1336,"EPHEMERIS_TYPE":0,"CLASSIFICATION_TYPE":"U","NORAD_CAT_ID":37392,"ELEMENT_SET_NO":999,"REV_AT_EPOCH":5192,"BSTAR":0,"MEAN_MOTION_DOT":-2.36e-6,"MEAN_MOTION_DDOT":0},{"OBJECT_NAME":"INTELSAT 18 (IS-18)","OBJECT_ID":"2011-056A","EPOCH":"2026-02-01T19:39:38.703744","MEAN_MOTION":1.00270031,"ECCENTRICITY":0.00019871,"INCLINATION":0.0037,"RA_OF_ASC_NODE":174.5508,"ARG_OF_PERICENTER":139.7377,"MEAN_ANOMALY":292.6117,"EPHEMERIS_TYPE":0,"CLASSIFICATION_TYPE":"U","NORAD_CAT_ID":37834,"ELEMENT_SET_NO":999,"REV_AT_EPOCH":5245,"BSTAR":0,"MEAN_MOTION_DOT":4.2e-7,"MEAN_MOTION_DDOT":0},{"OBJECT_NAME":"INTELSAT 22 (IS-22)","OBJECT_ID":"2012-011A","EPOCH":"2026-02-01T22:23:14.786592","MEAN_MOTION":1.00271615,"ECCENTRICITY":0.00016732,"INCLINATION":0.0243,"RA_OF_ASC_NODE":77.189,"ARG_OF_PERICENTER":247.4984,"MEAN_ANOMALY":215.3378,"EPHEMERIS_TYPE":0,"CLASSIFICATION_TYPE":"U","NORAD_CAT_ID":38098,"ELEMENT_SET_NO":999,"REV_AT_EPOCH":583,"BSTAR":0,"MEAN_MOTION_DOT":-6.8e-7,"MEAN_MOTION_DDOT":0},{"OBJECT_NAME":"INTELSAT 19 (IS-19)","OBJECT_ID":"2012-030A","EPOCH":"2026-02-01T21:07:22.057824","MEAN_MOTION":1.00271475,"ECCENTRICITY":0.00033177,"INCLINATION":0.0131,"RA_OF_ASC_NODE":82.2678,"ARG_OF_PERICENTER":238.3252,"MEAN_ANOMALY":294.3079,"EPHEMERIS_TYPE":0,"CLASSIFICATION_TYPE":"U","NORAD_CAT_ID":38356,"ELEMENT_SET_NO":999,"REV_AT_EPOCH":4909,"BSTAR":0,"MEAN_MOTION_DOT":-6.7e-7,"MEAN_MOTION_DDOT":0},{"OBJECT_NAME":"INTELSAT 20 (IS-20)","OBJECT_ID":"2012-043A","EPOCH":"2026-02-01T21:02:21.584544","MEAN_MOTION":1.00281745,"ECCENTRICITY":0.00027689,"INCLINATION":0.0205,"RA_OF_ASC_NODE":103.6072,"ARG_OF_PERICENTER":138.1037,"MEAN_ANOMALY":274.4608,"EPHEMERIS_TYPE":0,"CLASSIFICATION_TYPE":"U","NORAD_CAT_ID":38740,"ELEMENT_SET_NO":999,"REV_AT_EPOCH":4939,"BSTAR":0,"MEAN_MOTION_DOT":-3.7e-7,"MEAN_MOTION_DDOT":0},{"OBJECT_NAME":"INTELSAT 21 (IS-21)","OBJECT_ID":"2012-045A","EPOCH":"2026-02-01T21:46:10.837632","MEAN_MOTION":1.00269108,"ECCENTRICITY":0.00018229,"INCLINATION":0.0096,"RA_OF_ASC_NODE":248.4269,"ARG_OF_PERICENTER":63.0712,"MEAN_ANOMALY":89.1648,"EPHEMERIS_TYPE":0,"CLASSIFICATION_TYPE":"U","NORAD_CAT_ID":38749,"ELEMENT_SET_NO":999,"REV_AT_EPOCH":4916,"BSTAR":0,"MEAN_MOTION_DOT":0,"MEAN_MOTION_DDOT":0}]
