DIRECTV 11              
1 32729U 08013A   26032.89892318 -.00000135  00000+0  00000+0 0  9994
2 32729   0.0031 317.4989 0000323 340.2777  58.7047  1.00270780 44237
GALAXY 18 (G-18)        
1 32951U 08024A   26032.75141569  .00000000  00000+0  00000+0 0  9993
2 32951   0.0145 101.1584 0003214 222.8687 315.4257  1.00269290 44494
INTELSAT 25 (IS-25)     
1 33153U 08034A   26032.91235659 -.00000235  00000+0  00000+0 0  9992
2 33153   2.3591  82.0342 0004672 220.8110 126.2023  1.00271831 64334
GALAXY 19 (G-19)        
1 33376U 08045A   26032.89935652 -.00000149  00000+0  00000+0 0  9992
2 33376   0.0627 263.5149 0003085  49.0174  46.3010  1.00272860 63548
FM-5                    
1 35493U 09034A   26032.83019613 -.00000210  00000+0  00000+0 0  9996
2 35493   0.0045 340.3763 0001075 222.4477 141.8990  1.00271821 45285
INTELSAT 14 (IS-14)     
1 36097U 09064A   26032.90966991 -.00000283  00000+0  00000+0 0  9998
2 36097   0.0194  71.4863 0002455 243.8346  99.2352  1.00271079 59243
INTELSAT 15 (IS-15)     
1 36106U 09067A   26032.93541005 -.00000195  00000+0  00000+0 0  9992
2 36106   0.0179  81.7864 0002570 240.9663 231.2596  1.00271051 39875
DIRECTV 12              
1 36131U 09075A   26032.89822984 -.00000113  00000+0  00000+0 0  9992
2 36131   0.0054 168.0670 0000424 170.0190  14.6394  1.00271122 45193
INTELSAT 16 (IS-16)     
1 36397U 10006A   26032.90342987 -.00000254  00000+0  00000+0 0  9990
2 36397   0.0129  42.8894 0002181 266.1578  72.0632  1.00270731 58299
XM-5                    
1 37185U 10053A   26032.89571649 -.00000033  00000+0  00000+0 0  9990
2 37185   0.0646 268.4447 0002893 257.3747 173.5100  1.00271385 56122
INTELSAT 17 (IS-17)     
1 37238U 10065B   26032.93159669 -.00000012  00000+0  00000+0 0  9998
2 37238   0.0302 218.2159 0002545 103.5567 211.7135  1.00273910 51897
INTELSAT 28 (IS-28)     
1 37392U 11016A   26032.91226992 -.00000236  00000+0  00000+0 0  9996
2 37392   1.4566  84.4329 0004315 224.2247 120.1336  1.00270399 51928
INTELSAT 18 (IS-18)     
1 37834U 11056A   26032.81919796  .00000042  00000+0  00000+0 0  9995
2 37834   0.0037 174.5508 0001987 139.7377 292.6117  1.00270031 52457
INTELSAT 22 (IS-22)     
1 38098U 12011A   26032.93281003 -.00000068  00000+0  00000+0 0  9995
2 38098   0.0243  77.1890 0001673 247.4984 215.3378  1.00271615  5834
INTELSAT 19 (IS-19)     
1 38356U 12030A   26032.88011641 -.00000067  00000+0  00000+0 0  9995
2 38356   0.0131  82.2678 0003317 238.3252 294.3079  1.00271475 49097
INTELSAT 20 (IS-20)     
1 38740U 12043A   26032.87663871 -.00000037  00000+0  00000+0 0  9990
2 38740   0.0205 103.6072 0002768 138.1037 274.4608  1.00281745 49390
INTELSAT 21 (IS-21)     
1 38749U 12045A   26032.90706988  .00000000  00000+0  00000+0 0  9991
2 38749   0.0096 248.4269 0001822  63.0712  89.1648  1.00269108 49168
